[{"OBJECT_NAME":"FLOCK 4G-5","OBJECT_ID":"2025-009BG","EPOCH":"2026-03-09T10:57:11.608704","MEAN_MOTION":15.28679529,"ECCENTRICITY":0.00020946,"INCLINATION":97.4058,"RA_OF_ASC_NODE":151.2478,"ARG_OF_PERICENTER":314.5072,"MEAN_ANOMALY":45.5996,"EPHEMERIS_TYPE":0,"CLASSIFICATION_TYPE":"U","NORAD_CAT_ID":62663,"ELEMENT_SET_NO":999,"REV_AT_EPOCH":6369,"BSTAR":0.00040688068,"MEAN_MOTION_DOT":0.00011278,"MEAN_MOTION_DDOT":0},{"OBJECT_NAME":"STARLINK-35876","OBJECT_ID":"2025-303T","EPOCH":"2026-03-09T03:36:28.703808","MEAN_MOTION":15.27561943,"ECCENTRICITY":0.00017806,"INCLINATION":43.0004,"RA_OF_ASC_NODE":313.675,"ARG_OF_PERICENTER":280.7112,"MEAN_ANOMALY":79.3539,"EPHEMERIS_TYPE":0,"CLASSIFICATION_TYPE":"U","NORAD_CAT_ID":67180,"ELEMENT_SET_NO":999,"REV_AT_EPOCH":1265,"BSTAR":0.00090905271,"MEAN_MOTION_DOT":0.00024824,"MEAN_MOTION_DDOT":0}]
